IRIDIUM 921 [-]         
1 24873U 97034E   23265.85556193  .00019342  00000+0  76775-3 0  9990
2 24873  86.3850  59.2657 0005435 173.3943 186.7376 15.25223904434111
IRIDIUM 26 [-]          
1 24903U 97043A   23266.36798214  .00000732  00000+0  24537-3 0  9995
2 24903  86.4016  16.1016 0002219  88.2196 271.9255 14.36003330366366
IRIDIUM 22 [-]          
1 24907U 97043E   23266.35772685  .00000652  00000+0  22262-3 0  9996
2 24907  86.4017  19.1284 0002140  93.9366 266.2075 14.34911013365984
DUMMY MASS 1 [-]        
1 24925U 97048A   23266.52593647  .00000814  00000+0  90421-4 0  9992
2 24925  86.3309  67.6016 0005384 211.0188 149.0719 14.85829113411391
DUMMY MASS 2 [-]        
1 24926U 97048B   23266.51933570  .00000788  00000+0  87899-4 0  9990
2 24926  86.3307  69.1021 0005832 226.7099 133.3639 14.85590595411188
IRIDIUM 29 [-]          
1 24944U 97051A   23266.44551497  .00000628  00000+0  21224-3 0  9992
2 24944  86.3954  49.0798 0002191  97.8284 262.3161 14.35373890362698
IRIDIUM 33 [-]          
1 24946U 97051C   23265.95104975  .00000563  00000+0  19421-3 0  9998
2 24946  86.3870  48.5655 0007553 359.9972   0.1222 14.34113163361976
IRIDIUM 28 [-]          
1 24948U 97051E   23266.48604151  .00000799  00000+0  26678-3 0  9993
2 24948  86.3964  46.9419 0002091  80.7232 279.4201 14.36296649363065
